CCSDS_OMM_VERS = 2.0
CREATION_DATE  = 
ORIGINATOR     = 

OBJECT_NAME    = ZORKIY-2M-5
OBJECT_ID      = 2025-313AZ
CENTER_NAME    = EARTH
REF_FRAME      = TEME
TIME_SYSTEM    = UTC
MEAN_ELEMENT_THEORY = SGP/SGP4

EPOCH          = 2026-01-16T11:41:44.371104
MEAN_MOTION    = 15.21568507
ECCENTRICITY   = .00114625
INCLINATION    = 97.4113
RA_OF_ASC_NODE = 93.6609
ARG_OF_PERICENTER = 153.7011
MEAN_ANOMALY   = 206.4809

EPHEMERIS_TYPE = 0
CLASSIFICATION_TYPE = U
NORAD_CAT_ID   = 67295
ELEMENT_SET_NO = 999
REV_AT_EPOCH   = 288
BSTAR          = .31552014E-3
MEAN_MOTION_DOT = .7058E-4
MEAN_MOTION_DDOT = 0

CCSDS_OMM_VERS = 2.0
CREATION_DATE  = 
ORIGINATOR     = 

OBJECT_NAME    = SITRO-AIS-62
OBJECT_ID      = 2025-313BA
CENTER_NAME    = EARTH
REF_FRAME      = TEME
TIME_SYSTEM    = UTC
MEAN_ELEMENT_THEORY = SGP/SGP4

EPOCH          = 2026-01-16T11:40:45.705504
MEAN_MOTION    = 15.21652204
ECCENTRICITY   = .00097049
INCLINATION    = 97.4126
RA_OF_ASC_NODE = 93.6669
ARG_OF_PERICENTER = 163.0275
MEAN_ANOMALY   = 197.1287

EPHEMERIS_TYPE = 0
CLASSIFICATION_TYPE = U
NORAD_CAT_ID   = 67296
ELEMENT_SET_NO = 999
REV_AT_EPOCH   = 288
BSTAR          = .37432762E-3
MEAN_MOTION_DOT = .8404E-4
MEAN_MOTION_DDOT = 0

CCSDS_OMM_VERS = 2.0
CREATION_DATE  = 
ORIGINATOR     = 

OBJECT_NAME    = SITRO-AIS-61
OBJECT_ID      = 2025-313BB
CENTER_NAME    = EARTH
REF_FRAME      = TEME
TIME_SYSTEM    = UTC
MEAN_ELEMENT_THEORY = SGP/SGP4

EPOCH          = 2026-01-16T11:39:43.801632
MEAN_MOTION    = 15.21714460
ECCENTRICITY   = .00093852
INCLINATION    = 97.4128
RA_OF_ASC_NODE = 93.6677
ARG_OF_PERICENTER = 164.9270
MEAN_ANOMALY   = 195.2247

EPHEMERIS_TYPE = 0
CLASSIFICATION_TYPE = U
NORAD_CAT_ID   = 67297
ELEMENT_SET_NO = 999
REV_AT_EPOCH   = 288
BSTAR          = .36423886E-3
MEAN_MOTION_DOT = .819E-4
MEAN_MOTION_DDOT = 0

CCSDS_OMM_VERS = 2.0
CREATION_DATE  = 
ORIGINATOR     = 

OBJECT_NAME    = TIANHUI 7
OBJECT_ID      = 2025-314A
CENTER_NAME    = EARTH
REF_FRAME      = TEME
TIME_SYSTEM    = UTC
MEAN_ELEMENT_THEORY = SGP/SGP4

EPOCH          = 2026-01-08T03:21:31.038912
MEAN_MOTION    = 15.25383404
ECCENTRICITY   = .00013928
INCLINATION    = 97.4205
RA_OF_ASC_NODE = 85.2818
ARG_OF_PERICENTER = 102.4970
MEAN_ANOMALY   = 257.6424

EPHEMERIS_TYPE = 0
CLASSIFICATION_TYPE = U
NORAD_CAT_ID   = 67300
ELEMENT_SET_NO = 999
REV_AT_EPOCH   = 138
BSTAR          = .82629326E-4
MEAN_MOTION_DOT = .2013E-4
MEAN_MOTION_DDOT = 0

CCSDS_OMM_VERS = 2.0
CREATION_DATE  = 
ORIGINATOR     = 

OBJECT_NAME    = CZ-4B R/B
OBJECT_ID      = 2025-314B
CENTER_NAME    = EARTH
REF_FRAME      = TEME
TIME_SYSTEM    = UTC
MEAN_ELEMENT_THEORY = SGP/SGP4

EPOCH          = 2026-01-16T13:52:49.829664
MEAN_MOTION    = 15.69682797
ECCENTRICITY   = .01381407
INCLINATION    = 97.3746
RA_OF_ASC_NODE = 94.6713
ARG_OF_PERICENTER = 313.2444
MEAN_ANOMALY   = 45.7352

EPHEMERIS_TYPE = 0
CLASSIFICATION_TYPE = U
NORAD_CAT_ID   = 67301
ELEMENT_SET_NO = 999
REV_AT_EPOCH   = 269
BSTAR          = .44883344E-3
MEAN_MOTION_DOT = .92614E-3
MEAN_MOTION_DDOT = .4682179E-5

CCSDS_OMM_VERS = 2.0
CREATION_DATE  = 
ORIGINATOR     = 

OBJECT_NAME    = SHIJIAN-29A (SJ-29A)
OBJECT_ID      = 2025-315A
CENTER_NAME    = EARTH
REF_FRAME      = TEME
TIME_SYSTEM    = UTC
MEAN_ELEMENT_THEORY = SGP/SGP4

EPOCH          = 2026-01-16T17:47:21.681024
MEAN_MOTION    = 1.00271515
ECCENTRICITY   = .0001546
INCLINATION    = 3.0142
RA_OF_ASC_NODE = 99.1362
ARG_OF_PERICENTER = 305.6390
MEAN_ANOMALY   = 51.2644

EPHEMERIS_TYPE = 0
CLASSIFICATION_TYPE = U
NORAD_CAT_ID   = 67302
ELEMENT_SET_NO = 999
REV_AT_EPOCH   = 9
BSTAR          = 0
MEAN_MOTION_DOT = -.52E-6
MEAN_MOTION_DDOT = 0

CCSDS_OMM_VERS = 2.0
CREATION_DATE  = 
ORIGINATOR     = 

OBJECT_NAME    = CZ-7A R/B
OBJECT_ID      = 2025-315B
CENTER_NAME    = EARTH
REF_FRAME      = TEME
TIME_SYSTEM    = UTC
MEAN_ELEMENT_THEORY = SGP/SGP4

EPOCH          = 2026-01-16T06:20:59.820864
MEAN_MOTION    = 2.43659426
ECCENTRICITY   = .71939153
INCLINATION    = 19.5690
RA_OF_ASC_NODE = 93.7656
ARG_OF_PERICENTER = 191.4156
MEAN_ANOMALY   = 132.9924

EPHEMERIS_TYPE = 0
CLASSIFICATION_TYPE = U
NORAD_CAT_ID   = 67303
ELEMENT_SET_NO = 999
REV_AT_EPOCH   = 40
BSTAR          = .27702272E-2
MEAN_MOTION_DOT = .1034E-2
MEAN_MOTION_DDOT = .1376992E-5

CCSDS_OMM_VERS = 2.0
CREATION_DATE  = 
ORIGINATOR     = 

OBJECT_NAME    = CSG-3
OBJECT_ID      = 2026-001A
CENTER_NAME    = EARTH
REF_FRAME      = TEME
TIME_SYSTEM    = UTC
MEAN_ELEMENT_THEORY = SGP/SGP4

EPOCH          = 2026-01-16T15:23:37.214016
MEAN_MOTION    = 14.82316116
ECCENTRICITY   = .00016198
INCLINATION    = 97.8444
RA_OF_ASC_NODE = 202.5010
ARG_OF_PERICENTER = 90.7411
MEAN_ANOMALY   = 269.3988

EPHEMERIS_TYPE = 0
CLASSIFICATION_TYPE = U
NORAD_CAT_ID   = 67304
ELEMENT_SET_NO = 999
REV_AT_EPOCH   = 201
BSTAR          = .25152552E-4
MEAN_MOTION_DOT = .149E-5
MEAN_MOTION_DDOT = 0

CCSDS_OMM_VERS = 2.0
CREATION_DATE  = 
ORIGINATOR     = 

OBJECT_NAME    = STARLINK-36490
OBJECT_ID      = 2026-002A
CENTER_NAME    = EARTH
REF_FRAME      = TEME
TIME_SYSTEM    = UTC
MEAN_ELEMENT_THEORY = SGP/SGP4

EPOCH          = 2026-01-16T14:00:03.000384
MEAN_MOTION    = 15.84343958
ECCENTRICITY   = .00018094
INCLINATION    = 42.9968
RA_OF_ASC_NODE = 266.0835
ARG_OF_PERICENTER = 266.0144
MEAN_ANOMALY   = 148.0083

EPHEMERIS_TYPE = 0
CLASSIFICATION_TYPE = U
NORAD_CAT_ID   = 67305
ELEMENT_SET_NO = 999
REV_AT_EPOCH   = 310
BSTAR          = -.6198572E-2
MEAN_MOTION_DOT = -.1286384E-1
MEAN_MOTION_DDOT = 0

CCSDS_OMM_VERS = 2.0
CREATION_DATE  = 
ORIGINATOR     = 

OBJECT_NAME    = STARLINK-36488
OBJECT_ID      = 2026-002B
CENTER_NAME    = EARTH
REF_FRAME      = TEME
TIME_SYSTEM    = UTC
MEAN_ELEMENT_THEORY = SGP/SGP4

EPOCH          = 2026-01-16T14:00:03.000384
MEAN_MOTION    = 15.84348030
ECCENTRICITY   = .00018762
INCLINATION    = 42.9969
RA_OF_ASC_NODE = 266.0783
ARG_OF_PERICENTER = 272.6230
MEAN_ANOMALY   = 143.4902

EPHEMERIS_TYPE = 0
CLASSIFICATION_TYPE = U
NORAD_CAT_ID   = 67306
ELEMENT_SET_NO = 999
REV_AT_EPOCH   = 304
BSTAR          = -.61940595E-2
MEAN_MOTION_DOT = -.1285828E-1
MEAN_MOTION_DDOT = 0

CCSDS_OMM_VERS = 2.0
CREATION_DATE  = 
ORIGINATOR     = 

OBJECT_NAME    = STARLINK-36481
OBJECT_ID      = 2026-002C
CENTER_NAME    = EARTH
REF_FRAME      = TEME
TIME_SYSTEM    = UTC
MEAN_ELEMENT_THEORY = SGP/SGP4

EPOCH          = 2026-01-16T14:00:03.000384
MEAN_MOTION    = 15.84321272
ECCENTRICITY   = .00018391
INCLINATION    = 42.9970
RA_OF_ASC_NODE = 266.0659
ARG_OF_PERICENTER = 269.1441
MEAN_ANOMALY   = 151.9583

EPHEMERIS_TYPE = 0
CLASSIFICATION_TYPE = U
NORAD_CAT_ID   = 67307
ELEMENT_SET_NO = 999
REV_AT_EPOCH   = 304
BSTAR          = -.62868688E-2
MEAN_MOTION_DOT = -.1301264E-1
MEAN_MOTION_DDOT = 0

CCSDS_OMM_VERS = 2.0
CREATION_DATE  = 
ORIGINATOR     = 

OBJECT_NAME    = STARLINK-36449
OBJECT_ID      = 2026-002D
CENTER_NAME    = EARTH
REF_FRAME      = TEME
TIME_SYSTEM    = UTC
MEAN_ELEMENT_THEORY = SGP/SGP4

EPOCH          = 2026-01-16T14:00:03.000384
MEAN_MOTION    = 15.84318581
ECCENTRICITY   = .0001775
INCLINATION    = 42.9969
RA_OF_ASC_NODE = 266.0599
ARG_OF_PERICENTER = 270.4429
MEAN_ANOMALY   = 153.0322

EPHEMERIS_TYPE = 0
CLASSIFICATION_TYPE = U
NORAD_CAT_ID   = 67308
ELEMENT_SET_NO = 999
REV_AT_EPOCH   = 310
BSTAR          = -.63454782E-2
MEAN_MOTION_DOT = -.1311727E-1
MEAN_MOTION_DDOT = 0

